NORAD_CAT_ID,OBJECT_NAME,OBJECT_TYPE,EPOCH,MEAN_MOTION,ECCENTRICITY,INCLINATION,RA_OF_ASC_NODE,ARG_OF_PERICENTER,MEAN_ANOMALY,BSTAR,MEAN_MOTION_DOT,MEAN_MOTION_DDOT,TLE_LINE0,TLE_LINE1,TLE_LINE2,SEMIMAJOR_AXIS,PERIOD,APOGEE,PERIGEE,DECAYED
55638.0,STARLINK-5507,PAYLOAD,2024-01-13 05:16:44,14.98330614,0.0003207,69.9989,27.3831,270.4195,89.6597,-1.0969e-05,-2.24e-06,0.0,0 STARLINK-5507,1 55638U 23021L   24013.21996406 -.00000224  00000-0 -10969-4 0  9991,2 55638  69.9989  27.3831 0003207 270.4195  89.6597 14.98330614 50191,6950.191,96.107,574.285,569.827,0.0
55638.0,STARLINK-5507,PAYLOAD,2024-01-13 10:05:08,14.98336846,0.000319,69.9991,26.8784,272.9192,87.1602,4.5442e-05,4.49e-06,0.0,0 STARLINK-5507,1 55638U 23021L   24013.42023811  .00000449  00000-0  45442-4 0  9996,2 55638  69.9991  26.8784 0003190 272.9192  87.1602 14.98336846 50227,6950.172,96.107,574.254,569.82,0.0
55638.0,STARLINK-5507,PAYLOAD,2024-01-14 03:42:37,14.98323185,0.000304,69.9997,25.0277,267.1015,92.9796,0.00010099,1.112e-05,0.0,0 STARLINK-5507,1 55638U 23021L   24014.15460443  .00001112  00000-0  10099-3 0  9990,2 55638  69.9997  25.0277 0003040 267.1015  92.9796 14.98323185 50337,6950.214,96.107,574.192,569.966,0.0
55638.0,STARLINK-5507,PAYLOAD,2024-01-14 10:07:10,14.98325008,0.000304,69.9998,24.3545,267.912,92.1691,0.0001105,1.226e-05,0.0,0 STARLINK-5507,1 55638U 23021L   24014.42164400  .00001226  00000-0  11050-3 0  9998,2 55638  69.9998  24.3545 0003040 267.9120  92.1691 14.98325008 50672,6950.208,96.107,574.186,569.96,0.0
55638.0,STARLINK-5507,PAYLOAD,2024-01-15 03:44:38,14.9833255,0.0003002,69.9999,22.503,266.9373,93.1443,-9.4484e-06,-2.06e-06,0.0,0 STARLINK-5507,1 55638U 23021L   24015.15600298 -.00000206  00000-0 -94484-5 0  9992,2 55638  69.9999  22.5030 0003002 266.9373  93.1443 14.98332550 50484,6950.185,96.107,574.136,569.964,0.0
55638.0,STARLINK-5507,PAYLOAD,2024-01-15 10:09:10,14.9833535,0.0002966,70.0,21.8298,266.5941,93.4879,2.4863e-05,2.04e-06,0.0,0 STARLINK-5507,1 55638U 23021L   24015.42303965  .00000204  00000-0  24863-4 0  9992,2 55638  70.0000  21.8298 0002966 266.5941  93.4879 14.98335350 50828,6950.176,96.107,574.103,569.98,0.0
55638.0,STARLINK-5507,PAYLOAD,2024-01-16 10:11:12,14.98327581,0.0002871,70.0003,19.3049,266.1793,93.9038,7.0781e-06,-9e-08,0.0,0 STARLINK-5507,1 55638U 23021L   24016.42444529 -.00000009  00000-0  70781-5 0  9990,2 55638  70.0003  19.3049 0002871 266.1793  93.9038 14.98327581 50675,6950.2,96.107,574.061,570.07,0.0
55638.0,STARLINK-5507,PAYLOAD,2024-01-17 10:13:12,14.98336524,0.000278,70.0003,16.7793,265.6427,94.4414,6.0069e-05,6.24e-06,0.0,0 STARLINK-5507,1 55638U 23021L   24017.42583715  .00000624  00000-0  60069-4 0  9991,2 55638  70.0003  16.7793 0002780 265.6427  94.4414 14.98336524 50827,6950.173,96.107,573.97,570.106,0.0
55638.0,STARLINK-5507,PAYLOAD,2024-01-18 03:50:41,14.9832797,0.0002701,70.0004,14.9276,264.0224,96.0628,4.3905e-05,4.31e-06,0.0,0 STARLINK-5507,1 55638U 23021L   24018.16020201  .00000431  00000-0  43905-4 0  9995,2 55638  70.0004  14.9276 0002701 264.0224  96.0628 14.98327970 50937,6950.199,96.107,573.941,570.187,0.0
55638.0,STARLINK-5507,PAYLOAD,2024-01-18 10:15:13,14.98326931,0.0002721,70.0005,14.2543,264.3591,95.7258,2.7249e-05,2.32e-06,0.0,0 STARLINK-5507,1 55638U 23021L   24018.42724355  .00000232  00000-0  27249-4 0  9997,2 55638  70.0005  14.2543 0002721 264.3591  95.7258 14.98326931 51279,6950.202,96.107,573.959,570.176,0.0
55638.0,STARLINK-5507,PAYLOAD,2024-01-19 03:52:41,14.9841693,0.0003187,70.0008,12.4036,255.203,104.8776,-0.0014686,-0.00017612,0.0,0 STARLINK-5507,1 55638U 23021L   24019.16158749 -.00017612  00000-0 -14686-2 0  9998,2 55638  70.0008  12.4036 0003187 255.2030 104.8776 14.98416930 51088,6949.924,96.101,574.004,569.574,0.0
55638.0,STARLINK-5507,PAYLOAD,2024-01-19 10:17:13,14.98374487,0.0002845,70.0009,11.7297,259.186,100.8979,-0.00077851,-9.38e-05,0.0,0 STARLINK-5507,1 55638U 23021L   24019.42862954 -.00009380  00000-0 -77851-3 0  9994,2 55638  70.0009  11.7297 0002845 259.1860 100.8979 14.98374487 51120,6950.055,96.104,573.898,569.943,0.0
55638.0,STARLINK-5507,PAYLOAD,2024-01-19 23:06:18,14.98331113,0.0002763,70.001,10.3839,258.9897,101.0952,5.2834e-05,5.38e-06,0.0,0 STARLINK-5507,1 55638U 23021L   24019.96271843  .00000538  00000-0  52834-4 0  9993,2 55638  70.0010  10.3839 0002763 258.9897 101.0952 14.98331113 51500,6950.189,96.107,573.975,570.134,0.0
55638.0,STARLINK-5507,PAYLOAD,2024-01-20 03:54:43,14.9833054,0.0002784,70.001,9.8789,259.0088,101.0758,4.1518e-05,4.02e-06,0.0,0 STARLINK-5507,1 55638U 23021L   24020.16299894  .00000402  00000-0  41518-4 0  9990,2 55638  70.0010   9.8789 0002784 259.0088 101.0758 14.98330540 51231,6950.191,96.107,573.991,570.121,0.0
55638.0,STARLINK-5507,PAYLOAD,2024-01-20 08:43:07,14.98331291,0.0002767,70.0011,9.3741,258.1019,101.983,4.872e-05,4.88e-06,0.0,0 STARLINK-5507,1 55638U 23021L   24020.36327823  .00000488  00000-0  48720-4 0  9992,2 55638  70.0011   9.3741 0002767 258.1019 101.9830 14.98331291 51560,6950.189,96.107,573.977,570.131,0.0
55638.0,STARLINK-5507,PAYLOAD,2024-01-20 23:08:20,14.98328477,0.0002737,70.0013,7.8601,257.2169,102.8684,1.8904e-06,-7e-07,0.0,0 STARLINK-5507,1 55638U 23021L   24020.96412140 -.00000070  00000-0  18904-5 0  9995,2 55638  70.0013   7.8601 0002737 257.2169 102.8684 14.98328477 51652,6950.198,96.107,573.965,570.16,0.0
55638.0,STARLINK-5507,PAYLOAD,2024-01-21 03:56:44,14.98328407,0.0002728,70.0014,7.3552,257.1979,102.8876,1.7003e-06,-7.3e-07,0.0,0 STARLINK-5507,1 55638U 23021L   24021.16440155 -.00000073  00000-0  17003-5 0  9997,2 55638  70.0014   7.3552 0002728 257.1979 102.8876 14.98328407 51387,6950.198,96.107,573.959,570.167,0.0
55638.0,STARLINK-5507,PAYLOAD,2024-01-21 05:32:52,14.98328288,0.000273,70.0014,7.1869,257.1325,102.9529,8.7444e-07,-8.3e-07,0.0,0 STARLINK-5507,1 55638U 23021L   24021.23116186 -.00000083  00000-0  87444-6 0  9997,2 55638  70.0014   7.1869 0002730 257.1325 102.9529 14.98328288 51691,6950.198,96.107,573.961,570.166,0.0
55638.0,STARLINK-5507,PAYLOAD,2024-01-21 21:34:12,14.98332025,0.0002732,70.0012,5.5028,259.3153,100.7698,9.127e-06,1.6e-07,0.0,0 STARLINK-5507,1 55638U 23021L   24021.89875913  .00000016  00000-0  91270-5 0  9995,2 55638  70.0012   5.5028 0002732 259.3153 100.7698 14.98332025 51791,6950.187,96.107,573.95,570.153,0.0
55638.0,STARLINK-5507,PAYLOAD,2024-01-22 03:58:45,14.983306,0.0002724,70.0012,4.8286,259.7837,100.3015,2.0466e-06,-6.9e-07,0.0,0 STARLINK-5507,1 55638U 23021L   24022.16580009 -.00000069  00000-0  20466-5 0  9993,2 55638  70.0012   4.8286 0002724 259.7837 100.3015 14.98330600 51531,6950.191,96.107,573.949,570.163,0.0
55638.0,STARLINK-5507,PAYLOAD,2024-01-22 05:34:53,14.98331599,0.0002703,70.0012,4.6603,259.1364,100.9491,1.5531e-05,9.2e-07,0.0,0 STARLINK-5507,1 55638U 23021L   24022.23255917  .00000092  00000-0  15531-4 0  9999,2 55638  70.0012   4.6603 0002703 259.1364 100.9491 14.98331599 51844,6950.188,96.107,573.932,570.174,0.0
55638.0,STARLINK-5507,PAYLOAD,2024-01-22 08:47:09,14.98332727,0.0002694,70.0013,4.3236,259.5953,100.4903,2.7696e-05,2.38e-06,0.0,0 STARLINK-5507,1 55638U 23021L   24022.36607795  .00000238  00000-0  27696-4 0  9995,2 55638  70.0013   4.3236 0002694 259.5953 100.4903 14.98332727 51860,6950.184,96.107,573.922,570.177,0.0
55638.0,STARLINK-5507,PAYLOAD,2024-01-23 04:00:46,14.98328648,0.00027,70.0012,2.3038,260.1587,99.9267,3.1517e-05,2.83e-06,0.0,0 STARLINK-5507,1 55638U 23021L   24023.16719956  .00000283  00000-0  31517-4 0  9994,2 55638  70.0012   2.3038 0002700 260.1587  99.9267 14.98328648 51688,6950.197,96.107,573.939,570.186,0.0
55638.0,STARLINK-5507,PAYLOAD,2024-01-23 05:36:54,14.98329099,0.0002698,70.0012,2.1355,259.955,100.1304,3.6589e-05,3.44e-06,0.0,0 STARLINK-5507,1 55638U 23021L   24023.23395933  .00000344  00000-0  36589-4 0  9999,2 55638  70.0012   2.1355 0002698 259.9550 100.1304 14.98329099 51992,6950.196,96.107,573.936,570.186,0.0
55638.0,STARLINK-5507,PAYLOAD,2024-01-23 08:49:10,14.98330603,0.0002683,70.0013,1.799,259.5878,100.4979,5.1273e-05,5.19e-06,0.0,0 STARLINK-5507,1 55638U 23021L   24023.36747792  .00000519  00000-0  51273-4 0  9998,2 55638  70.0013   1.7990 0002683 259.5878 100.4979 14.98330603 52014,6950.191,96.107,573.921,570.191,0.0
55638.0,STARLINK-5507,PAYLOAD,2024-01-24 04:02:46,14.98332969,0.0002661,70.0014,359.7792,258.5603,101.5257,2.5966e-05,2.17e-06,0.0,0 STARLINK-5507,1 55638U 23021L   24024.16859566  .00000217  00000-0  25966-4 0  9995,2 55638  70.0014 359.7792 0002661 258.5603 101.5257 14.98332969 51839,6950.184,96.107,573.898,570.199,0.0
55638.0,STARLINK-5507,PAYLOAD,2024-01-24 07:15:02,14.98333109,0.0002674,70.0014,359.4427,258.8727,101.2131,2.7225e-05,2.32e-06,0.0,0 STARLINK-5507,1 55638U 23021L   24024.30211557  .00000232  00000-0  27225-4 0  9990,2 55638  70.0014 359.4427 0002674 258.8727 101.2131 14.98333109 52156,6950.183,96.107,573.907,570.19,0.0
55638.0,STARLINK-5507,PAYLOAD,2024-01-25 04:04:47,14.98327904,0.0002657,70.0016,357.2556,254.5843,105.5023,-1.8595e-05,-3.15e-06,0.0,0 STARLINK-5507,1 55638U 23021L   24025.16999908 -.00000315  00000-0 -18595-4 0  9992,2 55638  70.0016 357.2556 0002657 254.5843 105.5023 14.98327904 51983,6950.199,96.107,573.911,570.218,0.0
55638.0,STARLINK-5507,PAYLOAD,2024-01-25 07:17:04,14.98328258,0.0002651,70.0016,356.9188,254.1691,105.9176,-1.3143e-05,-2.5e-06,0.0,0 STARLINK-5507,1 55638U 23021L   24025.30351892 -.00000250  00000-0 -13143-4 0  9994,2 55638  70.0016 356.9188 0002651 254.1691 105.9176 14.98328258 52304,6950.198,96.107,573.906,570.221,0.0
55638.0,STARLINK-5507,PAYLOAD,2024-01-26 04:06:48,14.9833032,0.0002645,70.002,354.7309,248.7944,111.2932,-5.3399e-06,-1.57e-06,0.0,0 STARLINK-5507,1 55638U 23021L   24026.17139682 -.00000157  00000-0 -53399-5 0  9995,2 55638  70.0020 354.7309 0002645 248.7944 111.2932 14.98330320 52137,6950.192,96.107,573.895,570.219,0.0
